[{"OBJECT_NAME":"STARLINK-32668","OBJECT_ID":"2024-229W","EPOCH":"2026-03-26T06:20:11.024736","MEAN_MOTION":15.2760952,"ECCENTRICITY":8.57e-5,"INCLINATION":42.9972,"RA_OF_ASC_NODE":173.8746,"ARG_OF_PERICENTER":264.8094,"MEAN_ANOMALY":95.266,"EPHEMERIS_TYPE":0,"CLASSIFICATION_TYPE":"U","NORAD_CAT_ID":62212,"ELEMENT_SET_NO":999,"REV_AT_EPOCH":7313,"BSTAR":0.00057147,"MEAN_MOTION_DOT":0.00015511,"MEAN_MOTION_DDOT":0},{"OBJECT_NAME":"STARLINK-32669","OBJECT_ID":"2024-229X","EPOCH":"2026-03-26T12:45:21.286368","MEAN_MOTION":15.27611324,"ECCENTRICITY":3.39e-5,"INCLINATION":43.0005,"RA_OF_ASC_NODE":175.8917,"ARG_OF_PERICENTER":273.937,"MEAN_ANOMALY":86.1443,"EPHEMERIS_TYPE":0,"CLASSIFICATION_TYPE":"U","NORAD_CAT_ID":62213,"ELEMENT_SET_NO":999,"REV_AT_EPOCH":7313,"BSTAR":0.0010446,"MEAN_MOTION_DOT":0.00028622,"MEAN_MOTION_DDOT":0},{"OBJECT_NAME":"STARLINK-32666","OBJECT_ID":"2024-229Y","EPOCH":"2026-03-26T12:54:36.579168","MEAN_MOTION":15.27590938,"ECCENTRICITY":0.000104,"INCLINATION":43.0007,"RA_OF_ASC_NODE":175.9415,"ARG_OF_PERICENTER":277.568,"MEAN_ANOMALY":82.5053,"EPHEMERIS_TYPE":0,"CLASSIFICATION_TYPE":"U","NORAD_CAT_ID":62214,"ELEMENT_SET_NO":999,"REV_AT_EPOCH":7313,"BSTAR":0.00070152,"MEAN_MOTION_DOT":0.00019099,"MEAN_MOTION_DDOT":0},{"OBJECT_NAME":"STARLINK-32662","OBJECT_ID":"2024-229Z","EPOCH":"2026-03-26T06:17:38.005152","MEAN_MOTION":15.27597699,"ECCENTRICITY":8.19e-5,"INCLINATION":42.9984,"RA_OF_ASC_NODE":177.3112,"ARG_OF_PERICENTER":246.7196,"MEAN_ANOMALY":113.3569,"EPHEMERIS_TYPE":0,"CLASSIFICATION_TYPE":"U","NORAD_CAT_ID":62215,"ELEMENT_SET_NO":999,"REV_AT_EPOCH":7309,"BSTAR":0.00082802,"MEAN_MOTION_DOT":0.00022605,"MEAN_MOTION_DDOT":0},{"OBJECT_NAME":"STARLINK-11394 [DTC]","OBJECT_ID":"2024-231A","EPOCH":"2026-03-26T12:18:46.090080","MEAN_MOTION":15.69778794,"ECCENTRICITY":0.000162,"INCLINATION":53.1568,"RA_OF_ASC_NODE":18.3455,"ARG_OF_PERICENTER":75.877,"MEAN_ANOMALY":284.2428,"EPHEMERIS_TYPE":0,"CLASSIFICATION_TYPE":"U","NORAD_CAT_ID":62218,"ELEMENT_SET_NO":999,"REV_AT_EPOCH":7605,"BSTAR":0.0020324,"MEAN_MOTION_DOT":0.00254038,"MEAN_MOTION_DDOT":0},{"OBJECT_NAME":"STARLINK-11490 [DTC]","OBJECT_ID":"2024-231B","EPOCH":"2026-03-26T12:25:50.231136","MEAN_MOTION":15.69757553,"ECCENTRICITY":0.000196,"INCLINATION":53.1566,"RA_OF_ASC_NODE":18.3784,"ARG_OF_PERICENTER":76.1457,"MEAN_ANOMALY":283.9779,"EPHEMERIS_TYPE":0,"CLASSIFICATION_TYPE":"U","NORAD_CAT_ID":62219,"ELEMENT_SET_NO":999,"REV_AT_EPOCH":7605,"BSTAR":0.0014729,"MEAN_MOTION_DOT":0.00182183,"MEAN_MOTION_DDOT":0},{"OBJECT_NAME":"STARLINK-11466 [DTC]","OBJECT_ID":"2024-231C","EPOCH":"2026-03-26T06:33:12.789216","MEAN_MOTION":15.69787591,"ECCENTRICITY":9.31e-5,"INCLINATION":53.158,"RA_OF_ASC_NODE":19.6966,"ARG_OF_PERICENTER":87.5123,"MEAN_ANOMALY":272.6001,"EPHEMERIS_TYPE":0,"CLASSIFICATION_TYPE":"U","NORAD_CAT_ID":62220,"ELEMENT_SET_NO":999,"REV_AT_EPOCH":7601,"BSTAR":0.0014603,"MEAN_MOTION_DOT":0.00180809,"MEAN_MOTION_DDOT":0},{"OBJECT_NAME":"STARLINK-11468 [DTC]","OBJECT_ID":"2024-231D","EPOCH":"2026-03-26T03:43:58.353600","MEAN_MOTION":15.69764387,"ECCENTRICITY":0.00020521,"INCLINATION":53.1576,"RA_OF_ASC_NODE":20.3892,"ARG_OF_PERICENTER":145.0559,"MEAN_ANOMALY":215.0594,"EPHEMERIS_TYPE":0,"CLASSIFICATION_TYPE":"U","NORAD_CAT_ID":62221,"ELEMENT_SET_NO":999,"REV_AT_EPOCH":7599,"BSTAR":0.00077357841,"MEAN_MOTION_DOT":0.00094419,"MEAN_MOTION_DDOT":0},{"OBJECT_NAME":"STARLINK-11488 [DTC]","OBJECT_ID":"2024-231E","EPOCH":"2026-03-26T06:26:08.503872","MEAN_MOTION":15.69721277,"ECCENTRICITY":0.0001191,"INCLINATION":53.1569,"RA_OF_ASC_NODE":19.6624,"ARG_OF_PERICENTER":109.4572,"MEAN_ANOMALY":250.6575,"EPHEMERIS_TYPE":0,"CLASSIFICATION_TYPE":"U","NORAD_CAT_ID":62222,"ELEMENT_SET_NO":999,"REV_AT_EPOCH":7601,"BSTAR":0.00096967,"MEAN_MOTION_DOT":0.00118634,"MEAN_MOTION_DDOT":0},{"OBJECT_NAME":"STARLINK-11483 [DTC]","OBJECT_ID":"2024-231F","EPOCH":"2026-03-26T07:08:23.205120","MEAN_MOTION":15.69813783,"ECCENTRICITY":9.04e-5,"INCLINATION":53.1577,"RA_OF_ASC_NODE":19.1231,"ARG_OF_PERICENTER":96.6937,"MEAN_ANOMALY":263.4184,"EPHEMERIS_TYPE":0,"CLASSIFICATION_TYPE":"U","NORAD_CAT_ID":62223,"ELEMENT_SET_NO":999,"REV_AT_EPOCH":7602,"BSTAR":0.0020836,"MEAN_MOTION_DOT":0.00261064,"MEAN_MOTION_DDOT":0},{"OBJECT_NAME":"STARLINK-11492 [DTC]","OBJECT_ID":"2024-231G","EPOCH":"2026-03-26T05:08:36.098880","MEAN_MOTION":15.69737872,"ECCENTRICITY":0.0001243,"INCLINATION":53.1574,"RA_OF_ASC_NODE":20.0543,"ARG_OF_PERICENTER":76.4822,"MEAN_ANOMALY":283.6334,"EPHEMERIS_TYPE":0,"CLASSIFICATION_TYPE":"U","NORAD_CAT_ID":62224,"ELEMENT_SET_NO":999,"REV_AT_EPOCH":7600,"BSTAR":0.0015105,"MEAN_MOTION_DOT":0.00186804,"MEAN_MOTION_DDOT":0},{"OBJECT_NAME":"STARLINK-11471 [DTC]","OBJECT_ID":"2024-231H","EPOCH":"2026-03-22T06:59:22.983936","MEAN_MOTION":15.69678462,"ECCENTRICITY":0.00011911,"INCLINATION":53.1576,"RA_OF_ASC_NODE":38.94,"ARG_OF_PERICENTER":69.5062,"MEAN_ANOMALY":290.6084,"EPHEMERIS_TYPE":0,"CLASSIFICATION_TYPE":"U","NORAD_CAT_ID":62225,"ELEMENT_SET_NO":999,"REV_AT_EPOCH":7539,"BSTAR":0.0017198087,"MEAN_MOTION_DOT":0.00212918,"MEAN_MOTION_DDOT":0},{"OBJECT_NAME":"STARLINK-11475 [DTC]","OBJECT_ID":"2024-231J","EPOCH":"2026-03-26T05:50:50.075232","MEAN_MOTION":15.69781854,"ECCENTRICITY":0.0001959,"INCLINATION":53.1576,"RA_OF_ASC_NODE":19.5012,"ARG_OF_PERICENTER":33.4883,"MEAN_ANOMALY":326.6259,"EPHEMERIS_TYPE":0,"CLASSIFICATION_TYPE":"U","NORAD_CAT_ID":62226,"ELEMENT_SET_NO":999,"REV_AT_EPOCH":7601,"BSTAR":0.0015365,"MEAN_MOTION_DOT":0.00190461,"MEAN_MOTION_DDOT":0},{"OBJECT_NAME":"STARLINK-11469 [DTC]","OBJECT_ID":"2024-231K","EPOCH":"2026-03-26T12:11:42.311904","MEAN_MOTION":15.69750251,"ECCENTRICITY":0.0001669,"INCLINATION":53.1572,"RA_OF_ASC_NODE":18.3089,"ARG_OF_PERICENTER":89.7244,"MEAN_ANOMALY":270.3965,"EPHEMERIS_TYPE":0,"CLASSIFICATION_TYPE":"U","NORAD_CAT_ID":62227,"ELEMENT_SET_NO":999,"REV_AT_EPOCH":7605,"BSTAR":0.0015133,"MEAN_MOTION_DOT":0.0018726,"MEAN_MOTION_DDOT":0},{"OBJECT_NAME":"STARLINK-11476 [DTC]","OBJECT_ID":"2024-231L","EPOCH":"2026-03-26T05:29:38.446944","MEAN_MOTION":15.69784823,"ECCENTRICITY":8.47e-5,"INCLINATION":53.1564,"RA_OF_ASC_NODE":19.4025,"ARG_OF_PERICENTER":87.556,"MEAN_ANOMALY":272.5555,"EPHEMERIS_TYPE":0,"CLASSIFICATION_TYPE":"U","NORAD_CAT_ID":62228,"ELEMENT_SET_NO":999,"REV_AT_EPOCH":7602,"BSTAR":0.0017268,"MEAN_MOTION_DOT":0.00214788,"MEAN_MOTION_DDOT":0},{"OBJECT_NAME":"STARLINK-11485 [DTC]","OBJECT_ID":"2024-231M","EPOCH":"2026-03-26T02:54:32.229504","MEAN_MOTION":15.69729658,"ECCENTRICITY":0.00017342,"INCLINATION":53.1578,"RA_OF_ASC_NODE":20.1576,"ARG_OF_PERICENTER":43.2912,"MEAN_ANOMALY":316.8242,"EPHEMERIS_TYPE":0,"CLASSIFICATION_TYPE":"U","NORAD_CAT_ID":62229,"ELEMENT_SET_NO":999,"REV_AT_EPOCH":7599,"BSTAR":0.0015828211,"MEAN_MOTION_DOT":0.00195923,"MEAN_MOTION_DDOT":0}]
