STARLINK-32668          
1 62212U 24229W   26085.26401649  .00015511  00000+0  57147-3 0  9994
2 62212  42.9972 173.8746 0000857 264.8094  95.2660 15.27609520 73136
STARLINK-32669          
1 62213U 24229X   26085.53149637  .00028622  00000+0  10446-2 0  9998
2 62213  43.0005 175.8917 0000339 273.9370  86.1443 15.27611324 73134
STARLINK-32666          
1 62214U 24229Y   26085.53792337  .00019099  00000+0  70152-3 0  9999
2 62214  43.0007 175.9415 0001040 277.5680  82.5053 15.27590938 73139
STARLINK-32662          
1 62215U 24229Z   26085.26224543  .00022605  00000+0  82802-3 0  9991
2 62215  42.9984 177.3112 0000819 246.7196 113.3569 15.27597699 73096
STARLINK-11394 [DTC]    
1 62218U 24231A   26085.51303345  .00254038  00000+0  20324-2 0  9990
2 62218  53.1568  18.3455 0001620  75.8770 284.2428 15.69778794 76059
STARLINK-11490 [DTC]    
1 62219U 24231B   26085.51794249  .00182183  00000+0  14729-2 0  9991
2 62219  53.1566  18.3784 0001960  76.1457 283.9779 15.69757553 76051
STARLINK-11466 [DTC]    
1 62220U 24231C   26085.27306469  .00180809  00000+0  14603-2 0  9993
2 62220  53.1580  19.6966 0000931  87.5123 272.6001 15.69787591 76012
STARLINK-11468 [DTC]    
1 62221U 24231D   26085.15553650  .00094419  00000+0  77358-3 0  9995
2 62221  53.1576  20.3892 0002052 145.0559 215.0594 15.69764387 75996
STARLINK-11488 [DTC]    
1 62222U 24231E   26085.26815398  .00118634  00000+0  96967-3 0  9991
2 62222  53.1569  19.6624 0001191 109.4572 250.6575 15.69721277 76014
STARLINK-11483 [DTC]    
1 62223U 24231F   26085.29749080  .00261064  00000+0  20836-2 0  9996
2 62223  53.1577  19.1231 0000904  96.6937 263.4184 15.69813783 76029
STARLINK-11492 [DTC]    
1 62224U 24231G   26085.21430670  .00186804  00000+0  15105-2 0  9992
2 62224  53.1574  20.0543 0001243  76.4822 283.6334 15.69737872 76003
STARLINK-11471 [DTC]    
1 62225U 24231H   26081.29123824  .00212918  00000+0  17198-2 0  9997
2 62225  53.1576  38.9400 0001191  69.5062 290.6084 15.69678462 75397
STARLINK-11475 [DTC]    
1 62226U 24231J   26085.24363513  .00190461  00000+0  15365-2 0  9990
2 62226  53.1576  19.5012 0001959  33.4883 326.6259 15.69781854 76019
STARLINK-11469 [DTC]    
1 62227U 24231K   26085.50812861  .00187260  00000+0  15133-2 0  9991
2 62227  53.1572  18.3089 0001669  89.7244 270.3965 15.69750251 76050
STARLINK-11476 [DTC]    
1 62228U 24231L   26085.22891721  .00214788  00000+0  17268-2 0  9990
2 62228  53.1564  19.4025 0000847  87.5560 272.5555 15.69784823 76026
STARLINK-11485 [DTC]    
1 62229U 24231M   26085.12120636  .00195923  00000+0  15828-2 0  9999
2 62229  53.1578  20.1576 0001734  43.2912 316.8242 15.69729658 75993
